start=new Date('2022-01-15T00:00:00.000Z').valueOf();
sats=[{"CENTER_NAME":"EARTH","ARG_OF_PERICENTER":"71.2227","MEAN_MOTION_DOT":"0.00000630","OBJECT_ID":"2020-035J","LAUNCH_DATE":"2020-06-04","DECAY_DATE":null,"MEAN_ELEMENT_THEORY":"SGP4","SEMIMAJOR_AXIS":"6925.367","MEAN_MOTION_DDOT":"0.0000000000000","CLASSIFICATION_TYPE":"U","EPOCH":"2022-01-14T17:29:12.051744","REF_FRAME":"TEME","MEAN_MOTION":"15.06393982","BSTAR":"0.00006119700000","COUNTRY_CODE":"US","PERIAPSIS":"546.136","TLE_LINE2":"2 45665  53.0548  27.5377 0001582  71.2227 288.8934 15.06393982 90389","INCLINATION":"53.0548","RCS_SIZE":"LARGE","SITE":"AFETR","OBJECT_NAME":"STARLINK-1448","OBJECT_TYPE":"PAYLOAD","APOAPSIS":"548.328","TLE_LINE1":"1 45665U 20035J   22014.72861171  .00000630  00000-0  61197-4 0  9995","GP_ID":"193877669","TIME_SYSTEM":"UTC","PERIOD":"95.593","ELEMENT_SET_NO":"999","ECCENTRICITY":"0.00015820","RA_OF_ASC_NODE":"27.5377","NORAD_CAT_ID":"45665","MEAN_ANOMALY":"288.8934","FILE":"3273247","REV_AT_EPOCH":"9038","EPHEMERIS_TYPE":"0"},{"CLASSIFICATION_TYPE":"U","EPOCH":"2022-01-14T17:38:26.180736","SEMIMAJOR_AXIS":"6925.317","MEAN_MOTION_DDOT":"0.0000000000000","OBJECT_ID":"2020-035K","CENTER_NAME":"EARTH","MEAN_MOTION_DOT":"0.00000831","ARG_OF_PERICENTER":"62.6221","DECAY_DATE":null,"MEAN_ELEMENT_THEORY":"SGP4","LAUNCH_DATE":"2020-06-04","TLE_LINE2":"2 45666  53.0566  27.5190 0001454  62.6221 297.4916 15.06410250 90383","PERIAPSIS":"546.175","SITE":"AFETR","RCS_SIZE":"LARGE","INCLINATION":"53.0566","MEAN_MOTION":"15.06410250","REF_FRAME":"TEME","COUNTRY_CODE":"US","BSTAR":"0.00007464400000","TIME_SYSTEM":"UTC","TLE_LINE1":"1 45666U 20035K   22014.73502524  .00000831  00000-0  74644-4 0  9995","GP_ID":"193877920","PERIOD":"95.591","OBJECT_NAME":"STARLINK-1449","OBJECT_TYPE":"PAYLOAD","APOAPSIS":"548.189","FILE":"3273247","MEAN_ANOMALY":"297.4916","REV_AT_EPOCH":"9038","RA_OF_ASC_NODE":"27.5190","NORAD_CAT_ID":"45666","EPHEMERIS_TYPE":"0","ELEMENT_SET_NO":"999","ECCENTRICITY":"0.00014540"},{"ECCENTRICITY":"0.00014760","ELEMENT_SET_NO":"999","EPHEMERIS_TYPE":"0","FILE":"3273247","MEAN_ANOMALY":"294.6349","REV_AT_EPOCH":"9038","RA_OF_ASC_NODE":"27.5234","NORAD_CAT_ID":"45667","OBJECT_TYPE":"PAYLOAD","APOAPSIS":"548.217","OBJECT_NAME":"STARLINK-1450","PERIOD":"95.592","TIME_SYSTEM":"UTC","GP_ID":"193876668","TLE_LINE1":"1 45667U 20035L   22014.73228650  .00000761  00000-0  69984-4 0  9994","COUNTRY_CODE":"US","BSTAR":"0.00006998400000","MEAN_MOTION":"15.06406055","REF_FRAME":"TEME","SITE":"AFETR","INCLINATION":"53.0551","RCS_SIZE":"LARGE","TLE_LINE2":"2 45667  53.0551  27.5234 0001476  65.4793 294.6349 15.06406055 90383","PERIAPSIS":"546.173","DECAY_DATE":null,"MEAN_ELEMENT_THEORY":"SGP4","LAUNCH_DATE":"2020-06-04","OBJECT_ID":"2020-035L","CENTER_NAME":"EARTH","ARG_OF_PERICENTER":"65.4793","MEAN_MOTION_DOT":"0.00000761","CLASSIFICATION_TYPE":"U","EPOCH":"2022-01-14T17:34:29.553600","SEMIMAJOR_AXIS":"6925.330","MEAN_MOTION_DDOT":"0.0000000000000"},{"PERIAPSIS":"546.044","TLE_LINE2":"2 45668  53.0586  29.4189 0001692  63.4987 296.6176 15.06399251 90339","RCS_SIZE":"LARGE","INCLINATION":"53.0586","SITE":"AFETR","REF_FRAME":"TEME","MEAN_MOTION":"15.06399251","BSTAR":"0.00017441000000","COUNTRY_CODE":"US","MEAN_MOTION_DDOT":"0.0000000000000","SEMIMAJOR_AXIS":"6925.351","EPOCH":"2022-01-14T07:17:26.953152","CLASSIFICATION_TYPE":"U","MEAN_MOTION_DOT":"0.00002317","ARG_OF_PERICENTER":"63.4987","CENTER_NAME":"EARTH","OBJECT_ID":"2020-035M","LAUNCH_DATE":"2020-06-04","MEAN_ELEMENT_THEORY":"SGP4","DECAY_DATE":null,"RA_OF_ASC_NODE":"29.4189","NORAD_CAT_ID":"45668","REV_AT_EPOCH":"9033","FILE":"3272874","MEAN_ANOMALY":"296.6176","EPHEMERIS_TYPE":"0","ELEMENT_SET_NO":"999","ECCENTRICITY":"0.00016920","TLE_LINE1":"1 45668U 20035M   22014.30378418  .00002317  00000-0  17441-3 0  9995","GP_ID":"193845804","TIME_SYSTEM":"UTC","PERIOD":"95.592","OBJECT_NAME":"STARLINK-1451","APOAPSIS":"548.388","OBJECT_TYPE":"PAYLOAD"},{"MEAN_MOTION_DDOT":"0.0000000000000","SEMIMAJOR_AXIS":"6925.336","CLASSIFICATION_TYPE":"U","EPOCH":"2022-01-14T18:01:01.790688","CENTER_NAME":"EARTH","MEAN_MOTION_DOT":"0.00002498","ARG_OF_PERICENTER":"59.0994","OBJECT_ID":"2020-035N","LAUNCH_DATE":"2020-06-04","DECAY_DATE":null,"MEAN_ELEMENT_THEORY":"SGP4","PERIAPSIS":"546.008","TLE_LINE2":"2 45669  53.0554  27.4429 0001723  59.0994 301.0165 15.06404085 90391","INCLINATION":"53.0554","RCS_SIZE":"LARGE","SITE":"AFETR","REF_FRAME":"TEME","MEAN_MOTION":"15.06404085","BSTAR":"0.00018649000000","COUNTRY_CODE":"US","TLE_LINE1":"1 45669U 20035N   22014.75071517  .00002498  00000-0  18649-3 0  9996","GP_ID":"193877170","TIME_SYSTEM":"UTC","PERIOD":"95.592","OBJECT_NAME":"STARLINK-1452","APOAPSIS":"548.394","OBJECT_TYPE":"PAYLOAD","RA_OF_ASC_NODE":"27.4429","NORAD_CAT_ID":"45669","REV_AT_EPOCH":"9039","FILE":"3273247","MEAN_ANOMALY":"301.0165","EPHEMERIS_TYPE":"0","ELEMENT_SET_NO":"999","ECCENTRICITY":"0.00017230"},{"APOAPSIS":"548.272","OBJECT_TYPE":"PAYLOAD","OBJECT_NAME":"STARLINK-1453","PERIOD":"95.592","TIME_SYSTEM":"UTC","TLE_LINE1":"1 45670U 20035P   22014.67607836  .00002174  00000-0  16477-3 0  9996","GP_ID":"193877421","ECCENTRICITY":"0.00015360","ELEMENT_SET_NO":"999","EPHEMERIS_TYPE":"0","FILE":"3273247","REV_AT_EPOCH":"9069","MEAN_ANOMALY":"293.9848","RA_OF_ASC_NODE":"357.7768","NORAD_CAT_ID":"45670","MEAN_ELEMENT_THEORY":"SGP4","DECAY_DATE":null,"LAUNCH_DATE":"2020-06-04","OBJECT_ID":"2020-035P","MEAN_MOTION_DOT":"0.00002174","ARG_OF_PERICENTER":"66.1301","CENTER_NAME":"EARTH","EPOCH":"2022-01-14T16:13:33.170304","CLASSIFICATION_TYPE":"U","SEMIMAJOR_AXIS":"6925.343","MEAN_MOTION_DDOT":"0.0000000000000","BSTAR":"0.00016477000000","COUNTRY_CODE":"US","MEAN_MOTION":"15.06401811","REF_FRAME":"TEME","SITE":"AFETR","RCS_SIZE":"LARGE","INCLINATION":"53.0570","TLE_LINE2":"2 45670  53.0570 357.7768 0001536  66.1301 293.9848 15.06401811 90693","PERIAPSIS":"546.144"},{"RA_OF_ASC_NODE":"27.4258","NORAD_CAT_ID":"45671","MEAN_ANOMALY":"286.0704","FILE":"3273247","REV_AT_EPOCH":"9038","EPHEMERIS_TYPE":"0","ELEMENT_SET_NO":"999","ECCENTRICITY":"0.00015920","GP_ID":"193876169","TLE_LINE1":"1 45671U 20035Q   22014.75440979  .00000506  00000-0  52842-4 0  9993","TIME_SYSTEM":"UTC","PERIOD":"95.592","OBJECT_NAME":"STARLINK-1454","OBJECT_TYPE":"PAYLOAD","APOAPSIS":"548.321","PERIAPSIS":"546.116","TLE_LINE2":"2 45671  53.0553  27.4258 0001592  74.0460 286.0704 15.06398356 90385","RCS_SIZE":"LARGE","INCLINATION":"53.0553","SITE":"AFETR","REF_FRAME":"TEME","MEAN_MOTION":"15.06398356","COUNTRY_CODE":"US","BSTAR":"0.00005284200000","SEMIMAJOR_AXIS":"6925.354","MEAN_MOTION_DDOT":"0.0000000000000","CLASSIFICATION_TYPE":"U","EPOCH":"2022-01-14T18:06:21.005856","CENTER_NAME":"EARTH","ARG_OF_PERICENTER":"74.0460","MEAN_MOTION_DOT":"0.00000506","OBJECT_ID":"2020-035Q","LAUNCH_DATE":"2020-06-04","DECAY_DATE":null,"MEAN_ELEMENT_THEORY":"SGP4"},{"MEAN_MOTION":"15.06397461","REF_FRAME":"TEME","COUNTRY_CODE":"US","BSTAR":"0.00009185700000","TLE_LINE2":"2 45672  53.0555 359.7751 0001889  57.7923 302.3249 15.06397461 90739","PERIAPSIS":"545.913","SITE":"AFETR","INCLINATION":"53.0555","RCS_SIZE":"LARGE","OBJECT_ID":"2020-035R","ARG_OF_PERICENTER":"57.7923","MEAN_MOTION_DOT":"0.00001087","CENTER_NAME":"EARTH","MEAN_ELEMENT_THEORY":"SGP4","DECAY_DATE":null,"LAUNCH_DATE":"2020-06-04","EPOCH":"2022-01-14T05:36:37.662336","CLASSIFICATION_TYPE":"U","SEMIMAJOR_AXIS":"6925.356","MEAN_MOTION_DDOT":"0.0000000000000","ELEMENT_SET_NO":"999","ECCENTRICITY":"0.00018890","FILE":"3272874","MEAN_ANOMALY":"302.3249","REV_AT_EPOCH":"9073","NORAD_CAT_ID":"45672","RA_OF_ASC_NODE":"359.7751","EPHEMERIS_TYPE":"0","OBJECT_NAME":"STARLINK-1455","OBJECT_TYPE":"PAYLOAD","APOAPSIS":"548.530","TIME_SYSTEM":"UTC","GP_ID":"193845304","TLE_LINE1":"1 45672U 20035R   22014.23376924  .00001087  00000-0  91857-4 0  9999","PERIOD":"95.592"},{"ECCENTRICITY":"0.00016140","ELEMENT_SET_NO":"999","EPHEMERIS_TYPE":"0","FILE":"3273247","REV_AT_EPOCH":"9040","MEAN_ANOMALY":"304.7254","NORAD_CAT_ID":"45673","RA_OF_ASC_NODE":"27.3626","OBJECT_TYPE":"PAYLOAD","APOAPSIS":"548.323","OBJECT_NAME":"STARLINK-1456","PERIOD":"95.592","TIME_SYSTEM":"UTC","TLE_LINE1":"1 45673U 20035S   22014.76915300  .00002159  00000-0  16378-3 0  9990","GP_ID":"193877670","COUNTRY_CODE":"US","BSTAR":"0.00016378000000","MEAN_MOTION":"15.06402711","REF_FRAME":"TEME","SITE":"AFETR","RCS_SIZE":"LARGE","INCLINATION":"53.0547","TLE_LINE2":"2 45673  53.0547  27.3626 0001614  55.3887 304.7254 15.06402711 90400","PERIAPSIS":"546.087","MEAN_ELEMENT_THEORY":"SGP4","DECAY_DATE":null,"LAUNCH_DATE":"2020-06-04","OBJECT_ID":"2020-035S","MEAN_MOTION_DOT":"0.00002159","ARG_OF_PERICENTER":"55.3887","CENTER_NAME":"EARTH","EPOCH":"2022-01-14T18:27:34.819200","CLASSIFICATION_TYPE":"U","MEAN_MOTION_DDOT":"0.0000000000000","SEMIMAJOR_AXIS":"6925.340"},{"EPHEMERIS_TYPE":"0","RA_OF_ASC_NODE":"28.8179","NORAD_CAT_ID":"45674","FILE":"3272874","REV_AT_EPOCH":"9032","MEAN_ANOMALY":"287.6206","ECCENTRICITY":"0.00015850","ELEMENT_SET_NO":"999","PERIOD":"95.592","TLE_LINE1":"1 45674U 20035T   22014.44478577  .00005091  00000-0  36031-3 0  9992","GP_ID":"193844805","TIME_SYSTEM":"UTC","OBJECT_TYPE":"PAYLOAD","APOAPSIS":"548.284","OBJECT_NAME":"STARLINK-1457","RCS_SIZE":"LARGE","INCLINATION":"53.0545","SITE":"AFETR","PERIAPSIS":"546.089","TLE_LINE2":"2 45674  53.0545  28.8179 0001585  72.4957 287.6206 15.06408936 90325","BSTAR":"0.00036031000000","COUNTRY_CODE":"US","REF_FRAME":"TEME","MEAN_MOTION":"15.06408936","MEAN_MOTION_DDOT":"0.0000000000000","SEMIMAJOR_AXIS":"6925.321","CLASSIFICATION_TYPE":"U","EPOCH":"2022-01-14T10:40:29.490528","LAUNCH_DATE":"2020-06-04","DECAY_DATE":null,"MEAN_ELEMENT_THEORY":"SGP4","CENTER_NAME":"EARTH","ARG_OF_PERICENTER":"72.4957","MEAN_MOTION_DOT":"0.00005091","OBJECT_ID":"2020-035T"}];
